{"type": "FeatureCollection", "features": [ {"type": "Feature", "properties": {"norad_id": 32153, "name": "FENGYUN 1C DEB", "group": "fengyun-1c-debris", "lat": 72.06458021680513, "lon": 50.278194871382965, "alt_km": 694.9192904320143, "timestamp": "2025-12-24T09:46:31.289905+00:00", "meta": {"OBJECT_NAME": "FENGYUN 1C DEB", "OBJECT_ID": "1999-025CSX", "EPOCH": "2025-12-23T20:00:59.939712", "MEAN_MOTION": 14.48751602, "ECCENTRICITY": 0.02076357, "INCLINATION": 98.7683, "RA_OF_ASC_NODE": 201.203, "ARG_OF_PERICENTER": 187.7034, "MEAN_ANOMALY": 172.0954, "EPHEMERIS_TYPE": 0, "CLASSIFICATION_TYPE": "U", "NORAD_CAT_ID": 32153, "ELEMENT_SET_NO": 999, "REV_AT_EPOCH": 97384, "BSTAR": 0.00029710839, "MEAN_MOTION_DOT": 1.414e-05, "MEAN_MOTION_DDOT": 0}, "tle": {"line1": "1 32153U 99025CSX 25357.83402708  .00001414  00000+0  29711-3 0  9995", "line2": "2 32153  98.7683 201.2030 0207635 187.7034 172.0954 14.48751602973845"}}, "geometry": {"type": "Point", "coordinates": [50.278194871382965, 72.06458021680513]}}, {"type": "Feature", "properties": {"norad_id": 32155, "name": "FENGYUN 1C DEB", "group": "fengyun-1c-debris", "lat": 32.21541448008482, "lon": 114.11448301153155, "alt_km": 753.4331931332763, "timestamp": "2025-12-24T09:46:31.289915+00:00", "meta": {"OBJECT_NAME": "FENGYUN 1C DEB", "OBJECT_ID": "1999-025CSZ", "EPOCH": "2025-12-22T15:11:27.193632", "MEAN_MOTION": 14.32975023, "ECCENTRICITY": 0.00693114, "INCLINATION": 98.9542, "RA_OF_ASC_NODE": 286.5796, "ARG_OF_PERICENTER": 210.5989, "MEAN_ANOMALY": 149.1143, "EPHEMERIS_TYPE": 0, "CLASSIFICATION_TYPE": "U", "NORAD_CAT_ID": 32155, "ELEMENT_SET_NO": 999, "REV_AT_EPOCH": 70364, "BSTAR": 0.00042072892, "MEAN_MOTION_DOT": 1.135e-05, "MEAN_MOTION_DDOT": 0}, "tle": {"line1": "1 32155U 99025CSZ 25356.63295363  .00001135  00000+0  42073-3 0  9997", "line2": "2 32155  98.9542 286.5796 0069311 210.5989 149.1143 14.32975023703641"}}, "geometry": {"type": "Point", "coordinates": [114.11448301153155, 32.21541448008482]}}, {"type": "Feature", "properties": {"norad_id": 32156, "name": "FENGYUN 1C DEB", "group": "fengyun-1c-debris", "lat": 63.659118130751516, "lon": 8.331678799779509, "alt_km": 779.1090777151494, "timestamp": "2025-12-24T09:46:31.289925+00:00", "meta": {"OBJECT_NAME": "FENGYUN 1C DEB", "OBJECT_ID": "1999-025CTA", "EPOCH": "2025-12-21T17:31:26.712192", "MEAN_MOTION": 14.31964818, "ECCENTRICITY": 0.00820417, "INCLINATION": 99.3545, "RA_OF_ASC_NODE": 166.001, "ARG_OF_PERICENTER": 31.7205, "MEAN_ANOMALY": 328.8882, "EPHEMERIS_TYPE": 0, "CLASSIFICATION_TYPE": "U", "NORAD_CAT_ID": 32156, "ELEMENT_SET_NO": 999, "REV_AT_EPOCH": 64949, "BSTAR": 0.00022590764, "MEAN_MOTION_DOT": 5.78e-06, "MEAN_MOTION_DDOT": 0}, "tle": {"line1": "1 32156U 99025CTA 25355.73017028  .00000578  00000+0  22591-3 0  9991", "line2": "2 32156  99.3545 166.0010 0082041  31.7205 328.8882 14.31964818649497"}}, "geometry": {"type": "Point", "coordinates": [8.331678799779509, 63.659118130751516]}}, {"type": "Feature", "properties": {"norad_id": 32160, "name": "FENGYUN 1C DEB", "group": "fengyun-1c-debris", "lat": 24.544403384526433, "lon": -19.945677597942304, "alt_km": 823.0927458935121, "timestamp": "2025-12-24T09:46:31.289937+00:00", "meta": {"OBJECT_NAME": "FENGYUN 1C DEB", "OBJECT_ID": "1999-025CTE", "EPOCH": "2025-12-22T16:57:49.546944", "MEAN_MOTION": 14.37593057, "ECCENTRICITY": 0.00816952, "INCLINATION": 98.8814, "RA_OF_ASC_NODE": 154.2036, "ARG_OF_PERICENTER": 329.3685, "MEAN_ANOMALY": 30.2744, "EPHEMERIS_TYPE": 0, "CLASSIFICATION_TYPE": "U", "NORAD_CAT_ID": 32160, "ELEMENT_SET_NO": 999, "REV_AT_EPOCH": 96030, "BSTAR": 0.00038278477, "MEAN_MOTION_DOT": 1.145e-05, "MEAN_MOTION_DDOT": 0}, "tle": {"line1": "1 32160U 99025CTE 25356.70682346  .00001145  00000+0  38278-3 0  9995", "line2": "2 32160  98.8814 154.2036 0081695 329.3685  30.2744 14.37593057960300"}}, "geometry": {"type": "Point", "coordinates": [-19.945677597942304, 24.544403384526433]}}, {"type": "Feature", "properties": {"norad_id": 32161, "name": "FENGYUN 1C DEB", "group": "fengyun-1c-debris", "lat": -73.72703135950404, "lon": -109.5041360033078, "alt_km": 797.21312814682, "timestamp": "2025-12-24T09:46:31.289947+00:00", "meta": {"OBJECT_NAME": "FENGYUN 1C DEB", "OBJECT_ID": "1999-025CTF", "EPOCH": "2025-12-20T13:45:55.412928", "MEAN_MOTION": 14.01882373, "ECCENTRICITY": 0.0135471, "INCLINATION": 98.8321, "RA_OF_ASC_NODE": 98.9655, "ARG_OF_PERICENTER": 258.2246, "MEAN_ANOMALY": 100.3696, "EPHEMERIS_TYPE": 0, "CLASSIFICATION_TYPE": "U", "NORAD_CAT_ID": 32161, "ELEMENT_SET_NO": 999, "REV_AT_EPOCH": 63539, "BSTAR": 0.00038333, "MEAN_MOTION_DOT": 5.88e-06, "MEAN_MOTION_DDOT": 0}, "tle": {"line1": "1 32161U 99025CTF 25354.57355802  .00000588  00000+0  38333-3 0  9995", "line2": "2 32161  98.8321  98.9655 0135471 258.2246 100.3696 14.01882373635396"}}, "geometry": {"type": "Point", "coordinates": [-109.5041360033078, -73.72703135950404]}}, {"type": "Feature", "properties": {"norad_id": 32162, "name": "FENGYUN 1C DEB", "group": "fengyun-1c-debris", "lat": -75.73822053728341, "lon": 86.23897267064896, "alt_km": 721.0749743169963, "timestamp": "2025-12-24T09:46:31.289957+00:00", "meta": {"OBJECT_NAME": "FENGYUN 1C DEB", "OBJECT_ID": "1999-025CTG", "EPOCH": "2025-12-18T09:36:42.176160", "MEAN_MOTION": 14.62107639, "ECCENTRICITY": 0.00478844, "INCLINATION": 99.463, "RA_OF_ASC_NODE": 38.3597, "ARG_OF_PERICENTER": 153.8271, "MEAN_ANOMALY": 206.5361, "EPHEMERIS_TYPE": 0, "CLASSIFICATION_TYPE": "U", "NORAD_CAT_ID": 32162, "ELEMENT_SET_NO": 999, "REV_AT_EPOCH": 95001, "BSTAR": 0.0011169417, "MEAN_MOTION_DOT": 5.648e-05, "MEAN_MOTION_DDOT": 0}, "tle": {"line1": "1 32162U 99025CTG 25352.40048815  .00005648  00000+0  11169-2 0  9998", "line2": "2 32162  99.4630  38.3597 0047884 153.8271 206.5361 14.62107639950017"}}, "geometry": {"type": "Point", "coordinates": [86.23897267064896, -75.73822053728341]}}, {"type": "Feature", "properties": {"norad_id": 32163, "name": "FENGYUN 1C DEB", "group": "fengyun-1c-debris", "lat": 49.327595993729474, "lon": -5.661723988502962, "alt_km": 719.5503065524581, "timestamp": "2025-12-24T09:46:31.289968+00:00", "meta": {"OBJECT_NAME": "FENGYUN 1C DEB", "OBJECT_ID": "1999-025CTH", "EPOCH": "2025-12-17T06:09:38.740032", "MEAN_MOTION": 14.43153942, "ECCENTRICITY": 0.00514789, "INCLINATION": 99.5454, "RA_OF_ASC_NODE": 357.6283, "ARG_OF_PERICENTER": 21.6081, "MEAN_ANOMALY": 338.7262, "EPHEMERIS_TYPE": 0, "CLASSIFICATION_TYPE": "U", "NORAD_CAT_ID": 32163, "ELEMENT_SET_NO": 999, "REV_AT_EPOCH": 61041, "BSTAR": 0.00073174998, "MEAN_MOTION_DOT": 2.443e-05, "MEAN_MOTION_DDOT": 0}, "tle": {"line1": "1 32163U 99025CTH 25351.25669838  .00002443  00000+0  73175-3 0  9991", "line2": "2 32163  99.5454 357.6283 0051478  21.6081 338.7262 14.43153942610419"}}, "geometry": {"type": "Point", "coordinates": [-5.661723988502962, 49.327595993729474]}}, {"type": "Feature", "properties": {"norad_id": 32167, "name": "FENGYUN 1C DEB", "group": "fengyun-1c-debris", "lat": -79.3217930665297, "lon": 44.936066121753406, "alt_km": 822.4511138790458, "timestamp": "2025-12-24T09:46:31.289978+00:00", "meta": {"OBJECT_NAME": "FENGYUN 1C DEB", "OBJECT_ID": "1999-025CTM", "EPOCH": "2025-12-23T05:37:55.562304", "MEAN_MOTION": 14.31006431, "ECCENTRICITY": 0.01683439, "INCLINATION": 98.4784, "RA_OF_ASC_NODE": 351.5064, "ARG_OF_PERICENTER": 23.7384, "MEAN_ANOMALY": 337.145, "EPHEMERIS_TYPE": 0, "CLASSIFICATION_TYPE": "U", "NORAD_CAT_ID": 32167, "ELEMENT_SET_NO": 999, "REV_AT_EPOCH": 62825, "BSTAR": 0.00039494566, "MEAN_MOTION_DOT": 1.167e-05, "MEAN_MOTION_DDOT": 0}, "tle": {"line1": "1 32167U 99025CTM 25357.23467086  .00001167  00000+0  39495-3 0  9999", "line2": "2 32167  98.4784 351.5064 0168343  23.7384 337.1450 14.31006431628256"}}, "geometry": {"type": "Point", "coordinates": [44.936066121753406, -79.3217930665297]}}, {"type": "Feature", "properties": {"norad_id": 32168, "name": "FENGYUN 1C DEB", "group": "fengyun-1c-debris", "lat": 78.23694326023366, "lon": -27.280646493243207, "alt_km": 1014.802330371449, "timestamp": "2025-12-24T09:46:31.289988+00:00", "meta": {"OBJECT_NAME": "FENGYUN 1C DEB", "OBJECT_ID": "1999-025CTN", "EPOCH": "2025-12-22T15:44:38.689440", "MEAN_MOTION": 13.86225552, "ECCENTRICITY": 0.0243515, "INCLINATION": 101.656, "RA_OF_ASC_NODE": 68.1263, "ARG_OF_PERICENTER": 213.8835, "MEAN_ANOMALY": 144.6549, "EPHEMERIS_TYPE": 0, "CLASSIFICATION_TYPE": "U", "NORAD_CAT_ID": 32168, "ELEMENT_SET_NO": 999, "REV_AT_EPOCH": 63617, "BSTAR": 0.0032707228, "MEAN_MOTION_DOT": 4.707e-05, "MEAN_MOTION_DDOT": 0}, "tle": {"line1": "1 32168U 99025CTN 25356.65600335  .00004707  00000+0  32707-2 0  9992", "line2": "2 32168 101.6560  68.1263 0243515 213.8835 144.6549 13.86225552636172"}}, "geometry": {"type": "Point", "coordinates": [-27.280646493243207, 78.23694326023366]}}, {"type": "Feature", "properties": {"norad_id": 32169, "name": "FENGYUN 1C DEB", "group": "fengyun-1c-debris", "lat": -31.7692732178957, "lon": 2.2516219616171016, "alt_km": 687.875799143012, "timestamp": "2025-12-24T09:46:31.289998+00:00", "meta": {"OBJECT_NAME": "FENGYUN 1C DEB", "OBJECT_ID": "1999-025CTP", "EPOCH": "2025-12-23T11:33:10.736928", "MEAN_MOTION": 14.68215865, "ECCENTRICITY": 0.0033615, "INCLINATION": 98.5572, "RA_OF_ASC_NODE": 186.6342, "ARG_OF_PERICENTER": 84.915, "MEAN_ANOMALY": 275.5889, "EPHEMERIS_TYPE": 0, "CLASSIFICATION_TYPE": "U", "NORAD_CAT_ID": 32169, "ELEMENT_SET_NO": 999, "REV_AT_EPOCH": 96776, "BSTAR": 0.0040692, "MEAN_MOTION_DOT": 0.00023658, "MEAN_MOTION_DDOT": 0}, "tle": {"line1": "1 32169U 99025CTP 25357.48137427  .00023658  00000+0  40692-2 0  9990", "line2": "2 32169  98.5572 186.6342 0033615  84.9150 275.5889 14.68215865967769"}}, "geometry": {"type": "Point", "coordinates": [2.2516219616171016, -31.7692732178957]}}]}